IRIDIUM 150             
1 43257U 18030J   24288.46429962  .00000975  00000+0  34107-3 0  9997
2 43257  86.4044 185.7194 0002584  82.3102 277.8388 14.34208717342626
IRIDIUM 143             
1 43258U 18030K   24289.14296167  .00000635  00000+0  21977-3 0  9997
2 43258  86.4040 185.5062 0002700  85.2815 274.8689 14.34212416342686
IRIDIUM 161             
1 43478U 18047C   24289.19629503  .00001154  00000+0  33687-3 0  9996
2 43478  86.4521 343.4026 0002089  97.5155 262.6283 14.43293981337159
IRIDIUM 152             
1 43479U 18047D   24288.76683332  .00000715  00000+0  24814-3 0  9993
2 43479  86.3998 343.4410 0002175  95.4473 264.6971 14.34212043334995
IRIDIUM 147             
1 43480U 18047E   24288.70340097  .00000056  00000+0  12990-4 0  9998
2 43480  86.3999 343.4626 0001877  91.9052 268.2359 14.34218495334985
IRIDIUM 110             
1 43481U 18047F   24288.57020957  .00000307  00000+0  10251-3 0  9990
2 43481  86.4000 343.5939 0001657 101.5470 258.5912 14.34209068334956
IRIDIUM 162             
1 43482U 18047G   24288.56601557  .00001121  00000+0  32729-3 0  9990
2 43482  86.4522 343.5647 0001805  95.9213 264.2194 14.43277263337050
IRIDIUM 160             
1 43569U 18061A   24288.51603061  .00000535  00000+0  18397-3 0  9992
2 43569  86.3940 311.9917 0001988  89.0459 271.0964 14.34217962325841
